1 19891U 63014ET  05332.54010998 +.00000004 +00000-0 +10000-3 0  9999
2 19891 087.3238 169.4027 0364858 040.7977 321.9613 08.66431095471434
1 19891U 63014ET  05333.57917328 +.00000004 +00000-0 +10000-3 0  9996
2 19891 087.3233 169.3012 0366059 039.5461 323.1529 08.66431316471527
1 19891U 63014ET  05334.04097881  .00000004  00000-0  10000-3 0  9992
2 19891 087.3227 169.2569 0366691 039.0118 323.6601 08.66431449471569
1 19891U 63014ET  05334.50278464 +.00000004 +00000-0 +10000-3 0  9991
2 19891 087.3225 169.2128 0366872 038.4964 324.1475 08.66431466471600
1 19891U 63014ET  05335.54184812 +.00000004 +00000-0 +10000-3 0  9999
2 19891 087.3213 169.1124 0367882 037.3072 325.2748 08.66431615471692
1 19891U 63014ET  05336.58091021  .00000004  00000-0  10000-3 0  9993
2 19891 087.3201 169.0128 0368869 036.1895 326.3336 08.66431836471788
1 19891U 63014ET  05337.50452035 +.00000004 +00000-0 +10000-3 0  9992
2 19891 087.3199 168.9242 0369127 035.2370 327.2314 08.66431919471862
1 19891U 63014ET  05338.88993471  .00000004  00000-0  10000-3 0  9998
2 19891 087.3189 168.7914 0369927 033.7891 328.5976 08.66432148471980
1 19891U 63014ET  05338.88993471 +.00000004 +00000-0 +10000-3 0  9998
2 19891 087.3189 168.7914 0369927 033.7891 328.5976 08.66432148471980
1 19891U 63014ET  05339.58264095 +.00000004 +00000-0 +10000-3 0  9999
2 19891 087.3183 168.7256 0369905 033.1029 329.2437 08.66432252472040
1 19891U 63014ET  05340.96805350  .00000004  00000-0  10000-3 0  9998
2 19891 087.3286 168.5936 0370140 031.7301 330.5358 08.66432535472161
1 19891U 63014ET  05341.54530757 +.00000004 +00000-0 +10000-3 0  9999
2 19891 087.3286 168.5381 0370231 031.1196 331.1048 08.66432560472219
1 19891U 63014ET  05342.58436629 +.00000004 +00000-0 +10000-3 0  9997
2 19891 087.3282 168.4383 0370649 030.0315 332.1279 08.66432742472309
1 19891U 63014ET  05343.04616986  .00000004  00000-0  10000-3 0  9995
2 19891 087.3277 168.3936 0370476 029.6104 332.5220 08.66432791472342
1 19891U 63014ET  05343.62342427 +.00000004 +00000-0 +10000-3 0  9995
2 19891 087.3277 168.3381 0370585 028.9985 333.0940 08.66432815472393
1 19891U 63014ET  05344.54703096 +.00000004 +00000-0 +10000-3 0  9990
2 19891 087.3272 168.2491 0370596 028.0870 333.9470 08.66432925472473
1 19891U 63014ET  05345.58608894  .00000004  00000-0  10000-3 0  9995
2 19891 087.3270 168.1491 0370886 027.0118 334.9553 08.66433055472564
1 19891U 63014ET  05346.50969522 +.00000004 +00000-0 +10000-3 0  9996
2 19891 087.3264 168.0600 0370876 026.0881 335.8171 08.66433109472648
1 19891U 63014ET  05347.54875250 +.00000004 +00000-0 +10000-3 0  9995
2 19891 087.3242 167.9596 0371307 025.0205 336.8179 08.66433289472733
1 19891U 63014ET  05348.01055550  .00000004  00000-0  10000-3 0  9991
2 19891 087.3239 167.9150 0371147 024.5906 337.2193 08.66433332472773
1 19891U 63014ET  05348.58780912 +.00000004 +00000-0 +10000-3 0  9990
2 19891 087.3238 167.8594 0371383 023.9658 337.8034 08.66433381472822
1 19891U 63014ET  05349.51141473 +.00000004 +00000-0 +10000-3 0  9997
2 19891 087.3234 167.7704 0371434 023.0230 338.6837 08.66433451472901
1 19891U 63014ET  05350.43502021  .00000003  00000-0  10000-3 0  9999
2 19891 087.3234 167.6819 0371544 022.0791 339.5639 08.66433526472981
1 19891U 63014ET  05351.58952726 +.00000003 +00000-0 +10000-3 0  9997
2 19891 087.3233 167.5702 0371940 020.8864 340.6807 08.66433728473083
1 19891U 63014ET  05352.51313145  .00000003  00000-0  10000-3 0  9997
2 19891 087.3239 167.4815 0372349 019.9020 341.5962 08.66433820473164
1 19891U 63014ET  05353.55218737 +.00000003 +00000-0 +10000-3 0  9993
2 19891 087.3234 167.3815 0373073 018.7868 342.6384 08.66433962473257
1 19891U 63014ET  05354.47579206 +.00000003 +00000-0 +10000-3 0  9996
2 19891 087.3208 167.2922 0373125 017.8440 343.5173 08.66434042473335
1 19891U 63014ET  05354.93759348  .00000003  00000-0  10000-3 0  9994
2 19891 087.3206 167.2476 0373411 017.3566 343.9674 08.66434075473379
1 19891U 63014ET  05355.51484690 +.00000003 +00000-0 +10000-3 0  9994
2 19891 087.3201 167.1918 0374036 016.7211 344.5635 08.66434188473423
1 19891U 63014ET  05356.43845090 +.00000003 +00000-0 +10000-3 0  9991
2 19891 087.3200 167.1031 0374209 015.7751 345.4437 08.66434291473502
1 19891U 63014ET  05357.47750545  .00000003  00000-0  10000-3 0  9996
2 19891 087.3195 167.0029 0374696 014.6802 346.4651 08.66434443473593
1 19891U 63014ET  05358.51655837 +.00000003 +00000-0 +10000-3 0  9990
2 19891 087.3191 166.9058 0374915 013.6210 347.4507 08.66434622473685
1 19891U 63014ET  05359.44016154 +.00000003 +00000-0 +10000-3 0  9996
2 19891 087.3210 166.8186 0375133 012.6388 348.3592 08.66434618473764
1 19891U 63014ET  05359.90196314  .00000003  00000-0  10000-3 0  9994
2 19891 087.3208 166.7740 0375158 012.1712 348.7922 08.66434632473801
1 19891U 63014ET  05360.82556646 +.00000003 +00000-0 +10000-3 0  9995
2 19891 087.3208 166.6854 0375223 011.2148 349.6795 08.66434668473887
1 19891U 63014ET  05361.40281915 +.00000003 +00000-0 +10000-3 0  9994
2 19891 087.3198 166.6276 0374962 010.6470 350.2105 08.66434718473938
1 19891U 63014ET  05362.44187151  .00000003  00000-0  10000-3 0  9996
2 19891 087.3204 166.5285 0375041 009.5907 351.1908 08.66434829474021
1 19891U 63014ET  05362.44187151 +.00000003 +00000-0 +10000-3 0  9996
2 19891 087.3204 166.5285 0375041 009.5907 351.1908 08.66434829474021
1 19891U 63014ET  05363.82727575 +.00000003 +00000-0 +10000-3 0  9999
2 19891 087.3174 166.3938 0375110 008.1908 352.4909 08.66434954474140
1 19891U 63014ET  05364.86632721  .00000003  00000-0  10000-3 0  9992
2 19891 087.3167 166.2934 0375623 007.0973 353.5043 08.66435086474234
1 19891U 63014ET  05364.86632721 +.00000003 +00000-0 +10000-3 0  9992
2 19891 087.3167 166.2934 0375623 007.0973 353.5043 08.66435086474234
1 19891U 63014ET  05365.44357825 +.00000003 +00000-0 +10000-3 0  9996
2 19891 087.3168 166.2380 0375979 006.4708 354.0867 08.66435152474282
1 19891U 63014ET  06001.48261890 +.00000003 +00000-0 +10000-3 0  9994
2 19891 087.3164 166.1378 0376391 005.3739 355.1041 08.66435243474372
1 19891U 63014ET  06002.40622070  .00000003  00000-0  10000-3 0  9998
2 19891 087.3163 166.0486 0376472 004.4201 355.9874 08.66435295474452
1 19891U 63014ET  06002.86802118 +.00000003 +00000-0 +10000-3 0  9991
2 19891 087.3159 166.0036 0376986 003.9160 356.4541 08.66435355474494
1 19891U 63014ET  06003.44527168 +.00000003 +00000-0 +10000-3 0  9995
2 19891 087.3161 165.9482 0376879 003.3221 357.0020 08.66435380474546
1 19891U 63014ET  06004.83067414  .00000003  00000-0  10000-3 0  9992
2 19891 087.3175 165.8154 0378477 001.8053 358.4091 08.66435558474661
1 19891U 63014ET  06004.83067414 +.00000003 +00000-0 +10000-3 0  9992
2 19891 087.3175 165.8154 0378477 001.8053 358.4091 08.66435558474661
1 19891U 63014ET  06005.52337589 +.00000003 +00000-0 +10000-3 0  9992
2 19891 087.3174 165.7489 0378958 001.0539 359.1118 08.66435674474729
1 19891U 63014ET  06006.44697580 +.00000003 +00000-0 +10000-3 0  9994
2 19891 087.3172 165.6599 0379114 000.0794 000.0124 08.66435755474803
1 19891U 63014ET  06007.48602599  .00000003  00000-0  10000-3 0  9995
2 19891 087.3184 165.5619 0379364 359.0105 001.0037 08.66435920474895
1 19891U 63014ET  06008.52507646 +.00000003 +00000-0 +10000-3 0  9998
2 19891 087.3182 165.4618 0379613 357.9131 002.0211 08.66436035474987
1 19891U 63014ET  06009.44867467 +.00000003 +00000-0 +10000-3 0  9990
2 19891 087.3182 165.3733 0379588 356.9406 002.9145 08.66436104475061
1 19891U 63014ET  06010.37227673  .00000003  00000-0  10000-3 0  9993
2 19891 087.3180 165.2848 0379982 355.9589 003.8315 08.66436229475140
1 19891U 63014ET  06010.83407514 +.00000003 +00000-0 +10000-3 0  9998
2 19891 087.3180 165.2403 0379982 355.4885 004.2593 08.66436229475188
1 19891U 63014ET  06011.41132635 +.00000003 +00000-0 +10000-3 0  9992
2 19891 087.3155 165.1827 0380709 354.8300 004.8751 08.66436342475237
1 19891U 63014ET  06012.45037629  .00000003  00000-0  10000-3 0  9994
2 19891 087.3155 165.0825 0380709 353.7715 005.8490 08.66436342475323
1 19891U 63014ET  06012.79672698 +.00000003 +00000-0 +10000-3 0  9992
2 19891 087.3155 165.0491 0380709 353.4187 006.1759 08.66436342475357
1 19891U 63014ET  06013.48942408 +.00000003 +00000-0 +10000-3 0  9998
2 19891 087.3154 164.9833 0381091 352.6291 006.9069 08.66436560475417
1 19891U 63014ET  06014.41302402 +.00000003 +00000-0 +10000-3 0  9996
2 19891 087.3149 164.8944 0380831 351.6623 007.8032 08.66436649475498
1 19891U 63014ET  06015.33662563  .00000003  00000-0  10000-3 0  9995
2 19891 087.3146 164.8056 0381097 350.6838 008.7197 08.66436817475579
1 19891U 63014ET  06015.79842309 +.00000003 +00000-0 +10000-3 0  9993
2 19891 087.3146 164.7610 0381097 350.2133 009.1455 08.66436817475615
1 19891U 63014ET  06016.49112421 +.00000003 +00000-0 +10000-3 0  9996
2 19891 087.3137 164.6945 0381674 349.4534 009.8594 08.66437011475675
1 19891U 63014ET  06017.41472216  .00000003  00000-0  10000-3 0  9990
2 19891 087.3134 164.6052 0381966 348.4937 010.7428 08.66437091475755
1 19891U 63014ET  06018.45377204 +.00000003 +00000-0 +10000-3 0  9996
2 19891 087.3122 164.5048 0382871 347.4047 011.7519 08.66437240475841
1 19891U 63014ET  06019.49282134  .00000003  00000-0  10000-3 0  9998
2 19891 087.3122 164.4045 0382871 346.3462 012.7272 08.66437241475934
1 19891U 63014ET  06020.41642259 +.00000003 +00000-0 +10000-3 0  9990
2 19891 087.3109 164.3152 0383724 345.3708 013.6361 08.66437367476015
1 19891U 63014ET  06021.45547184 +.00000003 +00000-0 +10000-3 0  9996
2 19891 087.3109 164.2148 0383724 344.3123 014.6118 08.66437368476101
1 19891U 63014ET  06022.37907310  .00000003  00000-0  10000-3 0  9999
2 19891 087.3101 164.1254 0384292 343.3391 015.5231 08.66437524476185
1 19891U 63014ET  06022.84087052 +.00000003 +00000-0 +10000-3 0  9993
2 19891 087.3101 164.0807 0384292 342.8687 015.9500 08.66437524476228
1 19891U 63014ET  06023.41812127 +.00000003 +00000-0 +10000-3 0  9996
2 19891 087.3101 164.0249 0384292 342.2806 016.4960 08.66437525476277
